{
  "norad_id": 54790,
  "name": "STARLINK-5445",
  "history": [
    {
      "epoch": "2026-05-03T08:17:08.663424Z",
      "apogee_km": 540.323186709038,
      "perigee_km": 539.1828417190954,
      "latitude_deg": -1.611660804931497e-05,
      "longitude_deg": 158.01393151438117,
      "height_km": 540.4445491536106,
      "semi_major_axis_km": 6917.8900142140665,
      "eccentricity": 8.242e-05,
      "inclination_deg": 53.2156,
      "raan_deg": 143.5503,
      "arg_perigee_deg": 68.9518,
      "mean_anomaly_deg": 291.1562,
      "mean_motion_rev_day": 15.08836851
    },
    {
      "epoch": "2026-05-04T08:07:55.953984Z",
      "apogee_km": 540.3595132721766,
      "perigee_km": 539.1714327014661,
      "latitude_deg": -6.325062930663056e-06,
      "longitude_deg": 154.87705190945474,
      "height_km": 540.4220834029194,
      "semi_major_axis_km": 6917.9024729868215,
      "eccentricity": 8.587e-05,
      "inclination_deg": 53.2154,
      "raan_deg": 139.0898,
      "arg_perigee_deg": 66.2067,
      "mean_anomaly_deg": 293.9015,
      "mean_motion_rev_day": 15.08832775
    },
    {
      "epoch": "2026-05-05T09:34:06.255264Z",
      "apogee_km": 540.3548480601921,
      "perigee_km": 539.1483682869266,
      "latitude_deg": 1.8623233686121683e-06,
      "longitude_deg": 127.53180469558153,
      "height_km": 540.3729469063962,
      "semi_major_axis_km": 6917.888608173559,
      "eccentricity": 8.72e-05,
      "inclination_deg": 53.2155,
      "raan_deg": 134.3321,
      "arg_perigee_deg": 62.8838,
      "mean_anomaly_deg": 297.2243,
      "mean_motion_rev_day": 15.08837311
    },
    {
      "epoch": "2026-05-06T09:24:53.292672Z",
      "apogee_km": 540.3831196428791,
      "perigee_km": 539.1109207715635,
      "latitude_deg": 9.989176015146484e-06,
      "longitude_deg": 124.39568090452543,
      "height_km": 540.3425083866607,
      "semi_major_axis_km": 6917.884020207221,
      "eccentricity": 9.195e-05,
      "inclination_deg": 53.2156,
      "raan_deg": 129.8713,
      "arg_perigee_deg": 61.7814,
      "mean_anomaly_deg": 298.3271,
      "mean_motion_rev_day": 15.08838812
    },
    {
      "epoch": "2026-05-07T17:12:36.035136Z",
      "apogee_km": 540.4240261296454,
      "perigee_km": 539.0667376063229,
      "latitude_deg": -1.2451531970671972e-05,
      "longitude_deg": 0.21478310009159154,
      "height_km": 540.3450708217408,
      "semi_major_axis_km": 6917.882381867984,
      "eccentricity": 9.81e-05,
      "inclination_deg": 53.2161,
      "raan_deg": 123.9243,
      "arg_perigee_deg": 64.0907,
      "mean_anomaly_deg": 296.0186,
      "mean_motion_rev_day": 15.08839348
    },
    {
      "epoch": "2026-05-08T17:03:22.892832Z",
      "apogee_km": 540.4354537047002,
      "perigee_km": 539.0449603860843,
      "latitude_deg": 1.819792152487375e-05,
      "longitude_deg": -2.9203722605626594,
      "height_km": 540.3344279939547,
      "semi_major_axis_km": 6917.8772070453915,
      "eccentricity": 0.0001005,
      "inclination_deg": 53.2163,
      "raan_deg": 119.4637,
      "arg_perigee_deg": 64.2554,
      "mean_anomaly_deg": 295.8542,
      "mean_motion_rev_day": 15.08841041
    },
    {
      "epoch": "2026-05-09T08:57:14.391936Z",
      "apogee_km": 540.4754752409517,
      "perigee_km": 539.0158020042018,
      "latitude_deg": -2.0612001913429954e-05,
      "longitude_deg": 114.98832491307417,
      "height_km": 540.3555812055153,
      "semi_major_axis_km": 6917.882638622576,
      "eccentricity": 0.0001055,
      "inclination_deg": 53.2162,
      "raan_deg": 116.4899,
      "arg_perigee_deg": 66.9144,
      "mean_anomaly_deg": 293.1959,
      "mean_motion_rev_day": 15.08839264
    },
    {
      "epoch": "2026-05-10T05:37:15.561696Z",
      "apogee_km": 540.5107540469999,
      "perigee_km": 539.0052817332071,
      "latitude_deg": -8.253356624961692e-07,
      "longitude_deg": 160.2686009690621,
      "height_km": 540.3627803609095,
      "semi_major_axis_km": 6917.895017890103,
      "eccentricity": 0.00010881,
      "inclination_deg": 53.216,
      "raan_deg": 112.6238,
      "arg_perigee_deg": 67.2341,
      "mean_anomaly_deg": 292.8766,
      "mean_motion_rev_day": 15.08835214
    },
    {
      "epoch": "2026-05-11T15:00:21.429792Z",
      "apogee_km": 540.5121675082482,
      "perigee_km": 538.9929989557704,
      "latitude_deg": -2.298394011495805e-05,
      "longitude_deg": 11.878061519899644,
      "height_km": 540.2940017946739,
      "semi_major_axis_km": 6917.8895832320095,
      "eccentricity": 0.0001098,
      "inclination_deg": 53.2161,
      "raan_deg": 106.3788,
      "arg_perigee_deg": 62.1636,
      "mean_anomaly_deg": 297.9467,
      "mean_motion_rev_day": 15.08836992
    },
    {
      "epoch": "2026-05-12T14:51:08.830944Z",
      "apogee_km": 540.5766341440585,
      "perigee_km": 538.9398601285857,
      "latitude_deg": 1.3508324728907972e-05,
      "longitude_deg": 8.741543159076114,
      "height_km": 540.3207711293012,
      "semi_major_axis_km": 6917.895247136322,
      "eccentricity": 0.0001183,
      "inclination_deg": 53.217,
      "raan_deg": 101.9191,
      "arg_perigee_deg": 65.9497,
      "mean_anomaly_deg": 294.1619,
      "mean_motion_rev_day": 15.08835139
    },
    {
      "epoch": "2026-05-13T08:20:23.330400Z",
      "apogee_km": 540.5953551961584,
      "perigee_km": 538.9073904331917,
      "latitude_deg": 3.2259324249468405e-05,
      "longitude_deg": 102.44186272952481,
      "height_km": 540.3020523826915,
      "semi_major_axis_km": 6917.888372814675,
      "eccentricity": 0.000122,
      "inclination_deg": 53.2168,
      "raan_deg": 98.648,
      "arg_perigee_deg": 65.8496,
      "mean_anomaly_deg": 294.2624,
      "mean_motion_rev_day": 15.08837388
    },
    {
      "epoch": "2026-05-14T03:25:01.124832Z",
      "apogee_km": 540.5892286095868,
      "perigee_km": 538.9157911371494,
      "latitude_deg": 2.2499721872919893e-06,
      "longitude_deg": 171.93159274144068,
      "height_km": 540.2741235102937,
      "semi_major_axis_km": 6917.889509873368,
      "eccentricity": 0.00012095,
      "inclination_deg": 53.2162,
      "raan_deg": 95.0787,
      "arg_perigee_deg": 63.4228,
      "mean_anomaly_deg": 296.6888,
      "mean_motion_rev_day": 15.08837016
    },
    {
      "epoch": "2026-05-15T06:26:31.263360Z",
      "apogee_km": 540.2821755672121,
      "perigee_km": 538.9835718065242,
      "latitude_deg": -2.3045403055218816e-05,
      "longitude_deg": 120.39151780029643,
      "height_km": 540.5865900036582,
      "semi_major_axis_km": 6917.769873686868,
      "eccentricity": 9.386e-05,
      "inclination_deg": 53.2167,
      "raan_deg": 90.0241,
      "arg_perigee_deg": 95.0798,
      "mean_anomaly_deg": 265.0301,
      "mean_motion_rev_day": 15.08876157
    },
    {
      "epoch": "2026-05-16T14:14:17.008224Z",
      "apogee_km": 540.4576936224794,
      "perigee_km": 539.0796468129729,
      "latitude_deg": -1.0383370968285303e-05,
      "longitude_deg": -3.802995165911933,
      "height_km": 540.6326116001708,
      "semi_major_axis_km": 6917.905670217726,
      "eccentricity": 9.96e-05,
      "inclination_deg": 53.2175,
      "raan_deg": 84.076,
      "arg_perigee_deg": 87.3155,
      "mean_anomaly_deg": 272.7951,
      "mean_motion_rev_day": 15.08831729
    }
  ]
}